NORAD_CAT_ID,OBJECT_NAME,OBJECT_TYPE,EPOCH,MEAN_MOTION,ECCENTRICITY,INCLINATION,RA_OF_ASC_NODE,ARG_OF_PERICENTER,MEAN_ANOMALY,BSTAR,MEAN_MOTION_DOT,MEAN_MOTION_DDOT,TLE_LINE0,TLE_LINE1,TLE_LINE2,SEMIMAJOR_AXIS,PERIOD,APOGEE,PERIGEE,DECAYED
56495.0,STARLINK-5529,PAYLOAD,2024-08-18 21:23:09,14.98335173,0.000282,69.9995,96.0026,259.2695,100.8146,0.00012148,1.357e-05,0.0,0 STARLINK-5529,1 56495U 23064AZ  24231.89108420  .00001357  00000-0  12148-3 0  9993,2 56495  69.9995  96.0026 0002820 259.2695 100.8146 14.98335173 71182,6950.177,96.107,574.002,570.082,0.0
56495.0,STARLINK-5529,PAYLOAD,2024-08-19 08:36:06,14.98335341,0.0002729,69.9994,94.8238,263.6855,96.3993,1.9955e-05,1.45e-06,0.0,0 STARLINK-5529,1 56495U 23064AZ  24232.35840482  .00000145  00000-0  19955-4 0  9994,2 56495  69.9994  94.8238 0002729 263.6855  96.3993 14.98335341 71611,6950.176,96.107,573.938,570.145,0.0
56495.0,STARLINK-5529,PAYLOAD,2024-08-19 21:25:11,14.98328299,0.0002719,69.9993,93.4772,265.7227,94.3621,4.1008e-05,3.96e-06,0.0,0 STARLINK-5529,1 56495U 23064AZ  24232.89248996  .00000396  00000-0  41008-4 0  9997,2 56495  69.9993  93.4772 0002719 265.7227  94.3621 14.98328299 71691,6950.198,96.107,573.953,570.173,0.0
56495.0,STARLINK-5529,PAYLOAD,2024-08-20 15:02:39,14.98335729,0.0002858,69.9989,91.6254,264.9605,95.1228,6.35e-05,6.65e-06,0.0,0 STARLINK-5529,1 56495U 23064AZ  24233.62684390  .00000665  00000-0  63500-4 0  9991,2 56495  69.9989  91.6254 0002858 264.9605  95.1228 14.98335729 71447,6950.175,96.107,574.027,570.054,0.0
56495.0,STARLINK-5529,PAYLOAD,2024-08-20 19:51:03,14.98335967,0.0002944,69.9988,91.1208,264.4892,95.5932,7.4563e-05,7.97e-06,0.0,0 STARLINK-5529,1 56495U 23064AZ  24233.82712292  .00000797  00000-0  74563-4 0  9993,2 56495  69.9988  91.1208 0002944 264.4892  95.5932 14.98335967 71832,6950.174,96.107,574.086,569.993,0.0
56495.0,STARLINK-5529,PAYLOAD,2024-08-21 15:04:40,14.9832798,0.0002552,69.9994,89.1014,269.3734,90.7133,9.0042e-05,9.81e-06,0.0,0 STARLINK-5529,1 56495U 23064AZ  24234.62824806  .00000981  00000-0  90042-4 0  9992,2 56495  69.9994  89.1014 0002552 269.3734  90.7133 14.98327980 71594,6950.199,96.107,573.838,570.29,0.0
56495.0,STARLINK-5529,PAYLOAD,2024-08-21 21:29:12,14.98329042,0.0002645,69.9992,88.4281,265.5205,94.5652,1.4561e-05,8.1e-07,0.0,0 STARLINK-5529,1 56495U 23064AZ  24234.89528904  .00000081  00000-0  14561-4 0  9994,2 56495  69.9992  88.4281 0002645 265.5205  94.5652 14.98329042 71997,6950.196,96.107,573.899,570.223,0.0
